{"type":"FeatureCollection","features":[{"type":"Feature","geometry":{"type":"LineString","coordinates":[[610185.3574739641,2316582.0362756485],[610161.6997390271,2316506.678337436],[610214.7197968405,2316447.01243008],[610243.0952442662,2316457.314064473],[610328.2215865434,2316407.6011168705],[610413.3479288206,2316418.202059664],[610470.098823672,2316477.8310769834],[610555.2251659492,2316478.2832160536],[610552.5116395961,2316446.391986866],[610583.600613375,2316419.152972909],[610585.2481023998,2316386.1056362963],[610708.164440812,2316265.5329351565],[610697.1024030779,2316237.646132026],[610611.9760608007,2316260.8148618387],[610583.600613375,2316294.874913097],[610526.8497185236,2316295.732983668],[610498.4742710978,2316325.295278696],[610470.098823672,2316311.821738508],[610445.3066320472,2316325.819285726],[610526.8497185236,2316416.1282143826],[610583.600613375,2316382.908339695],[610599.4108344192,2316325.819285726],[610629.2286679293,2316295.6761104413],[610611.9760608007,2316277.3174308343],[610583.600613375,2316297.5056899907],[610526.8497185236,2316294.7151972125],[610447.0653886908,2316175.1034093015],[610486.8500200969,2316144.9602340166],[610498.4742710978,2316089.2113272836],[610555.2251659492,2316036.5656505506],[610611.9760608007,2316027.5578659857],[610663.1973454742,2316084.6738834465],[610668.7269556521,2316145.3115398944],[610697.1024030779,2316127.0790118785],[610701.249552524,2316084.6738834465],[610753.8532979294,2315994.244357592],[610810.6041927808,2315994.244357592],[610838.9796402066,2316030.359708917],[610853.1673639194,2316030.359708917]]},"properties":{"elevation":5.0}},{"type":"Feature","geometry":{"type":"LineString","coordinates":[[610356.5970339691,2316582.0362756485],[610356.5970339691,2316536.821512721],[610384.9724813949,2316506.678337436],[610441.7233762463,2316566.964688006],[610441.7233762463,2316582.0362756485]]},"properties":{"elevation":5.0}},{"type":"Feature","geometry":{"type":"LineString","coordinates":[[610629.661452114,2316582.0362756485],[610629.661452114,2316566.964688006],[610601.0814107469,2316536.821512721],[610611.9760608007,2316524.6939558918],[610672.0533359877,2316536.821512721],[610671.9083622184,2316582.0362756485]]},"properties":{"elevation":5.0}},{"type":"Feature","geometry":{"type":"LineString","coordinates":[[610697.1024030779,2316427.1622621394],[610697.1024030779,2316390.266804911],[610753.0191390058,2316416.248811581],[610697.1024030779,2316427.1622621394]]},"properties":{"elevation":5.0}},{"type":"Feature","geometry":{"type":"LineString","coordinates":[[610299.8461391176,2316369.962312656],[610286.8237132217,2316355.9624610115],[610299.8461391176,2316341.6401810287],[610313.0217407185,2316355.9624610115],[610299.8461391176,2316369.962312656]]},"properties":{"elevation":5.0}},{"type":"Feature","geometry":{"type":"LineString","coordinates":[[610384.9724813949,2316382.272161016],[610371.5906923283,2316325.819285726],[610384.9724813949,2316299.1950641936],[610409.745016169,2316325.819285726],[610384.9724813949,2316382.272161016]]},"properties":{"elevation":5.0}},{"type":"Feature","geometry":{"type":"LineString","coordinates":[[610753.8532979294,2316358.219189986],[610753.8532979294,2316335.527606799],[610753.8532979294,2316358.219189986]]},"properties":{"elevation":5.0}},{"type":"Feature","geometry":{"type":"LineString","coordinates":[[610853.1673639194,2316365.735884092],[610838.9796402066,2316365.735884092],[610782.2287453552,2316300.6340324134],[610753.8532979294,2316318.249942685],[610742.5347352877,2316265.5329351565],[610753.8532979294,2316225.7430453817],[610810.6041927808,2316271.226679655],[610853.1673639194,2316270.1882065423]]},"properties":{"elevation":5.0}},{"type":"Feature","geometry":{"type":"LineString","coordinates":[[609973.5284937217,2316178.5546265556],[609987.7162174346,2316178.5546265556],[609999.2766230886,2316205.2465845863],[610000.0659251999,2316325.819285726],[609973.5284937217,2316336.512014886]]},"properties":{"elevation":5.0}},{"type":"Feature","geometry":{"type":"LineString","coordinates":[[610129.5934545633,2316307.626781937],[610106.012724042,2316295.6761104413],[610129.5934545633,2316250.749625901],[610181.0466749737,2316265.5329351565],[610157.968901989,2316306.9957698057],[610129.5934545633,2316307.626781937]]},"properties":{"elevation":5.0}},{"type":"Feature","geometry":{"type":"LineString","coordinates":[[610413.3479288206,2316291.7578577707],[610401.0500505843,2316265.5329351565],[610413.3479288206,2316252.4895714107],[610425.7289651709,2316265.5329351565],[610413.3479288206,2316291.7578577707]]},"properties":{"elevation":5.0}},{"type":"Feature","geometry":{"type":"LineString","coordinates":[[610356.5970339691,2316217.128569195],[610335.541327421,2316205.2465845863],[610356.5970339691,2316182.7948965495],[610356.5970339691,2316217.128569195]]},"properties":{"elevation":5.0}},{"type":"Feature","geometry":{"type":"LineString","coordinates":[[610697.1024030779,2316219.576521391],[610697.1024030779,2316199.2007114785],[610727.2367327865,2316205.2465845863],[610697.1024030779,2316219.576521391]]},"properties":{"elevation":5.0}},{"type":"Feature","geometry":{"type":"LineString","coordinates":[[610853.1673639194,2316205.6900693695],[610838.2054558919,2316205.2465845863],[610853.1673639194,2316203.1490496965]]},"properties":{"elevation":5.0}},{"type":"Feature","geometry":{"type":"LineString","coordinates":[[610003.9175751715,2315979.1727699493],[610012.7140783723,2316024.387532877],[609987.7162174346,2316050.5264334283],[609973.5284937217,2316050.5264334283]]},"properties":{"elevation":5.0}}],"crs":{"type":"name","properties":{"name":"urn:ogc:def:crs:EPSG::32648"}}}