{"type":"FeatureCollection","features":[{"type":"Feature","geometry":{"type":"LineString","coordinates":[[610340.2729476884,2316096.3209692473],[610105.2791654578,2316093.848001512]]},"properties":{"width":3.0,"type":"Service"},"id":"7aea44f1-acc1-4ebe-bfdf-c3a7b802d0e7"},{"type":"Feature","geometry":{"type":"LineString","coordinates":[[610310.5237584978,2316290.8960402575],[610262.4006761819,2316290.677166297]]},"properties":{"width":3.0,"type":"Service"},"id":"55afc850-8705-491c-8e53-ce50ade944be"},{"type":"Feature","geometry":{"type":"LineString","coordinates":[[609968.7246755986,2316240.264951468],[609974.4046866992,2316213.1167353885],[609973.3506677087,2316204.2323645926],[609967.2596576787,2316197.539642798],[609959.4726288324,2316194.15646096],[609868.1139504451,2316174.7032228527]]},"properties":{"width":3.0,"type":"Service"},"id":"2364b086-52f8-4f67-9d71-6c214516c9c6"},{"type":"Feature","geometry":{"type":"LineString","coordinates":[[609868.1139504451,2316174.7032228527],[609874.512097916,2316134.8191919643],[609874.0341164196,2316123.7248108066],[609861.378229436,2316097.0202104943],[609860.8679485144,2316089.246344938],[609862.5895633191,2316082.0517162345],[609868.2136154582,2316075.989723492],[610000.2137644202,2316014.6521568443]]},"properties":{"width":3.0,"type":"Service"},"id":"4e114544-a4bf-4e80-bf2f-e8198d5bc420"},{"type":"Feature","geometry":{"type":"LineString","coordinates":[[610260.9775006886,2316312.4628209113],[610195.2886769052,2316312.6481639217],[610195.9069817875,2316253.74247867]]},"properties":{"width":3.0,"type":"Service"},"id":"59a18a66-ae32-4288-aab4-27cbdc77f001"},{"type":"Feature","geometry":{"type":"LineString","coordinates":[[610340.5842091601,2316030.4618443204],[610135.6106103507,2316029.5598499663]]},"properties":{"width":3.0,"type":"Service"},"id":"ed21e8fc-404f-4811-a2fb-bc09ed445f1d"},{"type":"Feature","geometry":{"type":"LineString","coordinates":[[610122.4629524198,2316028.5431646104],[610105.2791654578,2316093.848001512]]},"properties":{"width":3.0,"type":"Service"},"id":"1a5b051a-8181-4e19-9022-d9031915e487"},{"type":"Feature","geometry":{"type":"LineString","coordinates":[[610105.2791654578,2316093.848001512],[610106.4423954423,2316112.9498830917],[610110.7268210805,2316147.5469893157]]},"properties":{"width":3.0,"type":"Service"},"id":"79062309-1f8a-48f4-8d97-b115dcdafd6a"},{"type":"Feature","geometry":{"type":"LineString","coordinates":[[610110.7268210805,2316147.5469893157],[610107.3976331736,2316163.5309109483],[610068.9775552219,2316325.251240512]]},"properties":{"width":3.0,"type":"Service"},"id":"26d96b20-6bea-4d74-9f4f-2dde49feca56"},{"type":"Feature","geometry":{"type":"LineString","coordinates":[[610195.9069817875,2316253.74247867],[610197.0152381585,2316147.4753443026],[610110.7268210805,2316147.5469893157]]},"properties":{"width":3.0,"type":"Service"},"id":"ae4e3079-aa10-45c3-86ed-48bf103e6854"},{"type":"Feature","geometry":{"type":"LineString","coordinates":[[610262.4006761819,2316290.677166297],[610246.9575170001,2316289.3020401243],[610231.5694902301,2316279.5922564836],[610195.9069817875,2316253.74247867]]},"properties":{"width":3.0,"type":"Service"},"id":"10931cdf-5e89-4199-89c4-ce49271d8727"},{"type":"Feature","geometry":{"type":"LineString","coordinates":[[610036.9597194293,2315917.4756255294],[610000.2137644202,2316014.6521568443]]},"properties":{"width":3.0,"type":"Service"},"id":"622fdf90-3854-42fc-9d2c-39f204372dda"},{"type":"Feature","geometry":{"type":"LineString","coordinates":[[610231.4553084263,2315998.1595321908],[610234.4324939566,2315985.1066141403],[610252.1676912189,2315907.275310082]]},"properties":{"width":3.0,"type":"Service"},"id":"c219094f-de3b-4787-a52c-ae6924a73568"},{"type":"Feature","geometry":{"type":"LineString","coordinates":[[610000.2137644202,2316014.6521568443],[610016.4856978663,2316007.0886819796]]},"properties":{"width":3.0,"type":"Service"},"id":"09d4781f-fda4-4a58-9216-086b2cbe2e41"},{"type":"Feature","geometry":{"type":"LineString","coordinates":[[610289.5027850918,2315997.9015597883],[610291.0400710914,2315985.5918199723],[610307.4553604494,2315917.1162885204]]},"properties":{"width":3.0,"type":"Service"},"id":"2eb43c98-757b-49c6-8a64-cbc4ef84a010"},{"type":"Feature","geometry":{"type":"LineString","coordinates":[[610234.4324939566,2315985.1066141403],[610291.0400710914,2315985.5918199723],[610317.3682594462,2315985.8103487766]]},"properties":{"width":3.0,"type":"Service"},"id":"f86b4361-142f-48d1-ad5b-45e4d50ff879"},{"type":"Feature","geometry":{"type":"LineString","coordinates":[[610234.4324939566,2315985.1066141403],[610216.8407749177,2315983.0863813036],[610219.2311672476,2315936.1138541033],[610168.0739378883,2315927.5291396123]]},"properties":{"width":3.0,"type":"Service"},"id":"2e797f3a-55f8-435d-9de3-ad9f4d72ac33"},{"type":"Feature","geometry":{"type":"LineString","coordinates":[[610057.4108816979,2315988.8292235485],[610110.0225868023,2315865.3799533173],[610122.0374816777,2315809.648948251],[610122.3913721221,2315790.712062827]]},"properties":{"width":7.0,"type":"Major"},"id":"203040cd-6510-47d5-a5ca-3940dd1d9bc4"},{"type":"Feature","geometry":{"type":"LineString","coordinates":[[610057.4108816979,2315988.8292235485],[610104.0253884691,2315998.734023743],[610231.4553084263,2315998.1595321908],[610289.5027850918,2315997.9015597883],[610318.0897999791,2315997.7697585]]},"properties":{"width":3.5,"type":"Minor"},"id":"1c1e5d25-214d-430a-8ffd-f2c78ebc70e2"},{"type":"Feature","geometry":{"type":"LineString","coordinates":[[610541.1763810908,2315995.8607898355],[610579.4091789908,2315812.998081304]]},"properties":{"width":3.0,"type":"Service"},"id":"4bf050e0-3a66-41e0-b2a3-a491640406c4"},{"type":"Feature","geometry":{"type":"LineString","coordinates":[[610499.2133927577,2315996.468042837],[610541.1763810908,2315995.8607898355]]},"properties":{"width":3.5,"type":"Minor"},"id":"064518dd-4a36-46e2-bfc9-db1589bf20ab"},{"type":"Feature","geometry":{"type":"LineString","coordinates":[[610475.0300951549,2315865.625808493],[610499.2133927577,2315996.468042837]]},"properties":{"width":3.0,"type":"Service"},"id":"6cac789f-3eb7-4074-a8f6-e27ea1729ccd"},{"type":"Feature","geometry":{"type":"LineString","coordinates":[[610608.9525048241,2315994.7386533525],[610595.5663986489,2315872.9449083223]]},"properties":{"width":3.0,"type":"Service"},"id":"72681691-5dfa-4d5a-ae93-0ee2f62c4a9e"},{"type":"Feature","geometry":{"type":"LineString","coordinates":[[610318.0897999791,2315997.7697585],[610340.5842091601,2316030.4618443204]]},"properties":{"width":3.0,"type":"Service"},"id":"d228c3d6-f4d5-48db-a2e1-76576d2c3205"},{"type":"Feature","geometry":{"type":"LineString","coordinates":[[610541.1763810908,2315995.8607898355],[610596.9190306269,2315995.0572822816],[610608.9525048241,2315994.7386533525]]},"properties":{"width":3.5,"type":"Minor"},"id":"d9f91a00-9260-4676-b247-479ff3bfddfa"},{"type":"Feature","geometry":{"type":"LineString","coordinates":[[610608.9525048241,2315994.7386533525],[610655.1287377893,2315993.871852555]]},"properties":{"width":3.5,"type":"Minor"},"id":"88b9dc3d-a94f-4e24-b0a3-3f3b25fd327e"},{"type":"Feature","geometry":{"type":"LineString","coordinates":[[610655.1287377893,2315993.871852555],[610641.2298504923,2315878.8821547325]]},"properties":{"width":3.0,"type":"Service"},"id":"f4ac0749-93e7-45f6-b88a-db488ddb9a34"},{"type":"Feature","geometry":{"type":"LineString","coordinates":[[610318.0897999791,2315997.7697585],[610499.2133927577,2315996.468042837]]},"properties":{"width":3.5,"type":"Minor"},"id":"92622fba-6ef7-4401-a2fd-85156cac92b8"},{"type":"Feature","geometry":{"type":"LineString","coordinates":[[610655.1287377893,2315993.871852555],[610893.4800374953,2315988.99173348],[610914.5632654135,2315992.939810396]]},"properties":{"width":3.5,"type":"Minor"},"id":"6b72b1af-eaf3-40e2-98f6-288350fbf75c"},{"type":"Feature","geometry":{"type":"LineString","coordinates":[[610607.8112713625,2316028.8128858134],[610607.7483529019,2316163.634306948]]},"properties":{"width":3.0,"type":"Service"},"id":"ee86dafa-64a7-448d-9c37-ae126d60506b"},{"type":"Feature","geometry":{"type":"LineString","coordinates":[[610706.6552684075,2316208.2244105362],[610607.8112713625,2316028.8128858134]]},"properties":{"width":3.0,"type":"Service"},"id":"8ee87d21-28b3-4fc4-ab6f-d4dfb364e196"},{"type":"Feature","geometry":{"type":"LineString","coordinates":[[610339.7230423383,2316212.3547865706],[610339.5094782386,2316257.1721942853],[610321.5982037599,2316270.4804342287],[610310.5237584978,2316290.8960402575]]},"properties":{"width":3.0,"type":"Service"},"id":"d6f80ca5-e40a-4d2b-8bee-e15d358c43e2"},{"type":"Feature","geometry":{"type":"LineString","coordinates":[[610310.5237584978,2316290.8960402575],[610309.1030176613,2316310.7335470156]]},"properties":{"width":3.0,"type":"Service"},"id":"c25c99e0-8dec-4825-bc0e-734415401a59"},{"type":"Feature","geometry":{"type":"LineString","coordinates":[[610340.2729476884,2316096.3209692473],[610339.7230423383,2316212.3547865706]]},"properties":{"width":3.0,"type":"Service"},"id":"10de0d76-bf4d-42f0-923e-9c32a77be388"},{"type":"Feature","geometry":{"type":"LineString","coordinates":[[610340.5842091601,2316030.4618443204],[610340.3932489248,2316070.2982950006]]},"properties":{"width":3.0,"type":"Service"},"id":"a1629391-31e4-4381-996d-a840b20ef1f3"},{"type":"Feature","geometry":{"type":"LineString","coordinates":[[610607.624098064,2316210.555471573],[610607.2254512184,2316287.848478607]]},"properties":{"width":3.0,"type":"Service"},"id":"62434ffc-9d84-4921-bf79-4705b2bb1672"},{"type":"Feature","geometry":{"type":"LineString","coordinates":[[610340.3932489248,2316070.2982950006],[610340.2729476884,2316096.3209692473]]},"properties":{"width":3.0,"type":"Service"},"id":"a85023d6-8af1-4cd7-9e8b-2cdfe5ecbfd7"},{"type":"Feature","geometry":{"type":"LineString","coordinates":[[610706.6552684075,2316208.2244105362],[610607.624098064,2316210.555471573]]},"properties":{"width":3.0,"type":"Service"},"id":"88d52d64-86d3-4ad2-aad4-e19e60a71620"},{"type":"Feature","geometry":{"type":"LineString","coordinates":[[610607.2254512184,2316287.848478607],[610747.6931351041,2316287.2871069433]]},"properties":{"width":3.0,"type":"Service"},"id":"85f84494-f555-43f0-9f71-5d8cb0c2ac68"},{"type":"Feature","geometry":{"type":"LineString","coordinates":[[610747.6931351041,2316287.2871069433],[610706.6552684075,2316208.2244105362]]},"properties":{"width":3.0,"type":"Service"},"id":"35c29480-398d-4482-88d3-c1f0c76f0a06"},{"type":"Feature","geometry":{"type":"LineString","coordinates":[[610607.624098064,2316210.555471573],[610339.7230423383,2316212.3547865706]]},"properties":{"width":3.0,"type":"Service"},"id":"6a4fd742-8b00-4983-b511-182964ebd4b2"},{"type":"Feature","geometry":{"type":"LineString","coordinates":[[610607.7483529019,2316163.634306948],[610499.0569964943,2316164.3411665494],[610401.6611653413,2316070.482674676],[610340.3932489248,2316070.2982950006]]},"properties":{"width":3.0,"type":"Service"},"id":"3723c629-76ac-4b83-b7ae-044435324d64"},{"type":"Feature","geometry":{"type":"LineString","coordinates":[[610608.9525048241,2315994.7386533525],[610777.5988064563,2316293.640320891],[610780.1859959587,2316297.077879879],[610783.6639410058,2316299.4808635046],[610797.8940574386,2316308.1319085658],[610800.8854947102,2316310.1995874583]]},"properties":{"width":3.0,"type":"Service"},"id":"b225a2db-da57-47d9-b7c8-3413b76576ef"},{"type":"Feature","geometry":{"type":"LineString","coordinates":[[610607.8112713625,2316028.8128858134],[610340.5842091601,2316030.4618443204]]},"properties":{"width":3.0,"type":"Service"},"id":"0d0f78b2-bfc2-4763-9de4-24152a4c2e2f"},{"type":"Feature","geometry":{"type":"LineString","coordinates":[[610607.7483529019,2316163.634306948],[610607.624098064,2316210.555471573]]},"properties":{"width":3.0,"type":"Service"},"id":"13bc4bd7-a565-4541-98ca-c8fb4b454c52"},{"type":"Feature","geometry":{"type":"LineString","coordinates":[[610800.8854947102,2316310.1995874583],[610874.8056730799,2316145.0196395726],[610914.5632654135,2315992.939810396]]},"properties":{"width":3.0,"type":"Service"},"id":"766e00ea-1266-49fc-9671-b21d22bcfd3f"},{"type":"Feature","geometry":{"type":"LineString","coordinates":[[610700.5301190005,2316424.286195372],[610729.5138740318,2316361.218732721]]},"properties":{"width":3.0,"type":"Service"},"id":"01a35a34-4efa-4784-8cea-1e479931c4cd"},{"type":"Feature","geometry":{"type":"LineString","coordinates":[[610309.1030176613,2316310.7335470156],[610314.1017632021,2316333.1705150423],[610321.725747327,2316348.5959818373],[610330.6942617898,2316355.6953156483],[610345.4945718411,2316358.350282829],[610467.1236889627,2316357.141589793]]},"properties":{"width":3.0,"type":"Service"},"id":"129d6811-eac8-4e58-9805-7fda839d5354"},{"type":"Feature","geometry":{"type":"LineString","coordinates":[[610700.5301190005,2316424.286195372],[610606.9688199181,2316422.0709187477]]},"properties":{"width":3.0,"type":"Service"},"id":"7bd0c6ca-0adc-4a2d-9b3d-12be32e512bc"},{"type":"Feature","geometry":{"type":"LineString","coordinates":[[610606.9015845639,2316357.006185364],[610729.5138740318,2316361.218732721]]},"properties":{"width":3.0,"type":"Service"},"id":"5208b368-1cbc-47c0-a976-e68c57852a62"},{"type":"Feature","geometry":{"type":"LineString","coordinates":[[610467.1236889627,2316357.141589793],[610467.0628169989,2316385.1460469365],[610469.5698840696,2316392.8335645376],[610478.2917981428,2316402.610073701],[610497.3396558714,2316423.324932669]]},"properties":{"width":3.0,"type":"Service"},"id":"10e63d8a-7c25-4705-8439-f076de830097"},{"type":"Feature","geometry":{"type":"LineString","coordinates":[[610467.1236889627,2316357.141589793],[610606.9015845639,2316357.006185364]]},"properties":{"width":3.0,"type":"Service"},"id":"387ba086-ee74-44a6-a4d0-97667952e27e"},{"type":"Feature","geometry":{"type":"LineString","coordinates":[[610607.2254512184,2316287.848478607],[610606.9015845639,2316357.006185364]]},"properties":{"width":3.0,"type":"Service"},"id":"d59355a7-f6c4-4d7b-ba2b-2cde67728fed"},{"type":"Feature","geometry":{"type":"LineString","coordinates":[[610606.9688199181,2316422.0709187477],[610497.3396558714,2316423.324932669]]},"properties":{"width":3.0,"type":"Service"},"id":"d90c882f-77bb-4704-8af3-f42edc250c43"},{"type":"Feature","geometry":{"type":"LineString","coordinates":[[610729.5138740318,2316361.218732721],[610753.3718194563,2316313.724709223],[610754.5955787875,2316301.7007050365],[610747.6931351041,2316287.2871069433]]},"properties":{"width":3.0,"type":"Service"},"id":"2ac5d217-f313-422d-8a5c-c06522e17fd2"},{"type":"Feature","geometry":{"type":"LineString","coordinates":[[610606.9015845639,2316357.006185364],[610606.9688199181,2316422.0709187477]]},"properties":{"width":3.0,"type":"Service"},"id":"24b86fff-9d37-46cf-9bac-0167726beda9"},{"type":"Feature","geometry":{"type":"LineString","coordinates":[[610497.3396558714,2316423.324932669],[610597.880977356,2316533.2331208107],[610618.4216892497,2316543.619485809],[610633.2283776201,2316543.7177950344],[610646.1497401308,2316538.0365842194],[610660.4223243739,2316521.483408809],[610700.5301190005,2316424.286195372]]},"properties":{"width":3.0,"type":"Service"},"id":"11d7a5df-68ab-4f7e-9c08-ea34da48f5c8"},{"type":"Feature","geometry":{"type":"LineString","coordinates":[[610665.3419163747,2316619.942734941],[610682.2772482361,2316575.0924442103],[610754.085235173,2316411.336992741],[610800.8854947102,2316310.1995874583]]},"properties":{"width":3.0,"type":"Service"},"id":"4db7c947-55c9-4e30-949b-c69fce7b5e3c"},{"type":"Feature","geometry":{"type":"LineString","coordinates":[[610800.8854947102,2316310.1995874583],[610882.1131285479,2316379.8555324874],[610892.4236596514,2316389.952777447],[610926.8530137506,2316427.462775493]]},"properties":{"width":3.0,"type":"Service"},"id":"73c82d39-65b0-4f7a-9795-5502b9e07ca4"},{"type":"Feature","geometry":{"type":"LineString","coordinates":[[610147.8404410337,2316570.5766713973],[610210.3442271205,2316600.577723263]]},"properties":{"width":3.0,"type":"Service"},"id":"f13e0fd3-1442-4189-9c29-41b975517979"},{"type":"Feature","geometry":{"type":"LineString","coordinates":[[610147.8404410337,2316570.5766713973],[610131.8244534706,2316603.9880514303],[610128.7798961417,2316613.099939501],[610122.0772528426,2316645.4881178117]]},"properties":{"width":3.0,"type":"Service"},"id":"fb98275e-99de-4115-a85c-42304c955eec"},{"type":"Feature","geometry":{"type":"LineString","coordinates":[[609914.2661223784,2316760.6292090984],[609921.4324009592,2316727.2478064788],[610016.127278273,2316302.3766103056],[610057.4108816979,2315988.8292235485]]},"properties":{"width":7.0,"type":"Major"},"id":"d4f94f8f-e849-440c-b42f-0b7327391b40"},{"type":"Feature","geometry":{"type":"LineString","coordinates":[[610309.1030176613,2316310.7335470156],[610260.9775006886,2316312.4628209113]]},"properties":{"width":3.0,"type":"Service"},"id":"9ad1bc6a-36a8-4e9c-9045-c42197572d9b"},{"type":"Feature","geometry":{"type":"LineString","coordinates":[[610262.4006761819,2316290.677166297],[610260.9775006886,2316312.4628209113]]},"properties":{"width":3.0,"type":"Service"},"id":"d21fae9b-8712-48de-8dde-c55df16be064"}],"crs":{"type":"name","properties":{"name":"urn:ogc:def:crs:EPSG::32648"}}}